H1 CPF 01  gfz 2021 03 29 00  5881 tandemx   
H2 1003001  6202 36605    2021 03 29 00 59 42 2021 04 03 00 00 42   120 1 1  0 0 0
H9
10 0 59306  55422.000000  0    5352349.978   4290965.065    627568.665
10 0 59306  55542.000000  0    5350056.493   4062043.162   1520846.167
10 0 59306  55662.000000  0    5249597.062   3762994.202   2387342.142
10 0 59306  55782.000000  0    5051553.028   3400753.960   3211794.074
10 0 59306  55902.000000  0    4758358.460   2983348.109   3979686.709
10 0 59306  56022.000000  0    4374270.246   2519714.210   4677512.634
10 0 59306  56142.000000  0    3905303.116   2019508.869   5293010.853
10 0 59306  56262.000000  0    3359128.208   1492905.494   5815383.197
10 0 59306  56382.000000  0    2744939.538    950384.537   6235479.481
10 0 59306  56502.000000  0    2073293.108    402523.132   6545950.461
10 0 59306  56622.000000  0    1355922.131   -140209.939   6741370.005
10 0 59306  56742.000000  0     605529.724   -667653.477   6818326.520
10 0 59306  56862.000000  0    -164437.880  -1170144.272   6775478.468
10 0 59306  56982.000000  0    -940032.354  -1638693.582   6613575.561
10 0 59306  57102.000000  0   -1707055.345  -2065148.051   6335445.181
10 0 59306  57222.000000  0   -2451316.161  -2442330.975   5945945.176
10 0 59306  57342.000000  0   -3158893.422  -2764164.069   5451886.855
10 0 59306  57462.000000  0   -3816400.042  -3025769.006   4861923.190
10 0 59306  57582.000000  0   -4411241.414  -3223543.586   4186400.998
10 0 59306  57702.000000  0   -4931861.871  -3355211.699   3437183.041
10 0 59306  57822.000000  0   -5367975.293  -3419846.361   2627442.310
10 0 59306  57942.000000  0   -5710775.927  -3417866.079   1771430.653
10 0 59306  58062.000000  0   -5953122.696  -3351003.384    884223.376
10 0 59306  58182.000000  0   -6089691.292  -3222244.870    -18553.133
10 0 59306  58302.000000  0   -6117091.188  -3035745.626   -921004.641
10 0 59306  58422.000000  0   -6033943.873  -2796719.535  -1807259.039
10 0 59306  58542.000000  0   -5840918.328  -2511307.641  -2661754.252
10 0 59306  58662.000000  0   -5540725.781  -2186429.810  -3469516.700
10 0 59306  58782.000000  0   -5138074.153  -1829623.227  -4216426.342
10 0 59306  58902.000000  0   -4639584.018  -1448871.863  -4889462.140
10 0 59306  59022.000000  0   -4053668.975  -1052431.240  -5476924.823
10 0 59306  59142.000000  0   -3390382.765   -648652.160  -5968632.267
10 0 59306  59262.000000  0   -2661238.488   -245808.031  -6356084.997
10 0 59306  59382.000000  0   -1879003.975    148070.732  -6632601.362
10 0 59306  59502.000000  0   -1057476.386    525351.746  -6793421.191
10 0 59306  59622.000000  0    -211241.943    878943.635  -6835778.377
10 0 59306  59742.000000  0     644576.975   1202425.729  -6758942.495
10 0 59306  59862.000000  0    1494584.388   1490160.660  -6564231.926
10 0 59306  59982.000000  0    2323382.413   1737391.471  -6254995.020
10 0 59306  60102.000000  0    3115845.272   1940319.768  -5836558.429
10 0 59306  60222.000000  0    3857391.774   2096163.657  -5316143.627
10 0 59306  60342.000000  0    4534252.680   2203195.549  -4702754.281
10 0 59306  60462.000000  0    5133730.540   2260759.171  -4007031.830
10 0 59306  60582.000000  0    5644444.266   2269264.280  -3241080.146
10 0 59306  60702.000000  0    6056553.908   2230159.334  -2418263.164
10 0 59306  60822.000000  0    6361962.089   2145882.632  -1552975.786
10 0 59306  60942.000000  0    6554483.449   2019792.009   -660391.345
10 0 59306  61062.000000  0    6629979.463   1856074.372    243808.260
10 0 59306  61182.000000  0    6586451.596   1659636.799   1143715.609
10 0 59306  61302.000000  0    6424093.345   1435983.350   2023483.897
10 0 59306  61422.000000  0    6145299.443   1191078.975   2867616.178
10 0 59306  61542.000000  0    5754628.324    931204.390   3661246.533
10 0 59306  61662.000000  0    5258721.504    662806.378   4390408.681
10 0 59306  61782.000000  0    4666181.419    392347.039   5042283.946
10 0 59306  61902.000000  0    3987413.448    126156.336   5605427.562
10 0 59306  62022.000000  0    3234432.265   -129710.294   6069967.486
10 0 59306  62142.000000  0    2420640.470   -369603.362   6427771.215
10 0 59306  62262.000000  0    1560585.075   -588399.104   6672582.438
10 0 59306  62382.000000  0     669693.724   -781605.653   6800125.860
10 0 59306  62502.000000  0    -236004.845   -945453.209   6808176.724
10 0 59306  62622.000000  0   -1140168.985  -1076966.671   6696596.064
10 0 59306  62742.000000  0   -2026437.879  -1174019.748   6467332.144
10 0 59306  62862.000000  0   -2878725.712  -1235368.881   6124387.892
10 0 59306  62982.000000  0   -3681513.163  -1260667.167   5673757.240
10 0 59306  63102.000000  0   -4420134.185  -1250459.228   5123327.512
10 0 59306  63222.000000  0   -5081050.242  -1206156.432   4482747.024
10 0 59306  63342.000000  0   -5652106.379  -1129991.829   3763259.887
10 0 59306  63462.000000  0   -6122762.832  -1024956.051   2977510.830
10 0 59306  63582.000000  0   -6484298.616   -894715.774   2139324.716
10 0 59306  63702.000000  0   -6729984.479   -743516.435   1263461.410
10 0 59306  63822.000000  0   -6855216.089   -576071.400    365348.911
10 0 59306  63942.000000  0   -6857604.219   -397440.310   -539196.555
10 0 59306  64062.000000  0   -6737020.826   -212899.576  -1434258.216
10 0 59306  64182.000000  0   -6495598.309    -27808.532  -2304107.144
10 0 59306  64302.000000  0   -6137685.770    152524.562  -3133484.528
10 0 59306  64422.000000  0   -5669760.760    322974.737  -3907875.455
10 0 59306  64542.000000  0   -5100298.491    478726.595  -4613763.815
10 0 59306  64662.000000  0   -4439604.981    615391.288  -5238864.941
10 0 59306  64782.000000  0   -3699618.276    729112.278  -5772332.009
10 0 59306  64902.000000  0   -2893683.189    816656.526  -6204934.428
10 0 59306  65022.000000  0   -2036304.976    875490.030  -6529205.110
10 0 59306  65142.000000  0   -1142887.077    903837.407  -6739558.533
10 0 59306  65262.000000  0    -229456.075    900724.044  -6832376.041
10 0 59306  65382.000000  0     687619.010    865999.946  -6806060.144
10 0 59306  65502.000000  0    1591911.898    800345.267  -6661061.356
10 0 59306  65622.000000  0    2467227.782    705257.602  -6399872.287
10 0 59306  65742.000000  0    3297887.762    583021.278  -6026989.203
10 0 59306  65862.000000  0    4069006.052    436658.727  -5548841.867
10 0 59306  65982.000000  0    4766755.514    269864.029  -4973693.534
10 0 59306  66102.000000  0    5378619.639     86921.029  -4311510.262
10 0 59306  66222.000000  0    5893624.847   -107394.042  -3573798.269
10 0 59306  66342.000000  0    6302547.001   -307923.150  -2773412.654
10 0 59306  66462.000000  0    6598089.512   -509248.369  -1924339.650
10 0 59306  66582.000000  0    6775026.768   -705822.162  -1041453.310
10 0 59306  66702.000000  0    6830307.921   -892102.578   -140252.700
10 0 59306  66822.000000  0    6763118.905  -1062690.663    763415.233
10 0 59306  66942.000000  0    6574899.701  -1212466.486   1653642.289
10 0 59306  67062.000000  0    6269316.831  -1336720.413   2514747.952
10 0 59306  67182.000000  0    5852189.108  -1431275.036   3331565.451
10 0 59306  67302.000000  0    5331370.797  -1492595.477   4089715.310
10 0 59306  67422.000000  0    4716595.266  -1517886.043   4775862.977
10 0 59306  67542.000000  0    4019283.349  -1505168.957   5377954.486
10 0 59306  67662.000000  0    3252322.121  -1453344.360   5885427.254
10 0 59306  67782.000000  0    2429817.572  -1362231.237   6289391.530
10 0 59306  67902.000000  0    1566829.208  -1232588.076   6582780.226
10 0 59306  68022.000000  0     679089.878  -1066113.043   6760467.370
10 0 59306  68142.000000  0    -217283.775   -865422.629   6819351.836
10 0 59306  68262.000000  0   -1106083.771   -634010.343   6758406.712
10 0 59306  68382.000000  0   -1971302.399   -376186.043   6578695.683
10 0 59306  68502.000000  0   -2797419.059    -96996.117   6283355.684
10 0 59306  68622.000000  0   -3569678.623    197873.935   5877546.697
10 0 59306  68742.000000  0   -4274357.869    502212.872   5368367.653
10 0 59306  68862.000000  0   -4899014.646    809411.323   4764738.075
10 0 59306  68982.000000  0   -5432715.235   1112601.498   4077247.409
10 0 59306  69102.000000  0   -5866234.271   1404806.353   3317972.344
10 0 59306  69222.000000  0   -6192223.059   1679094.843   2500266.512
10 0 59306  69342.000000  0   -6405343.248   1928739.624   1638524.699
10 0 59306  69462.000000  0   -6502362.277   2147373.783    747925.408
10 0 59306  69582.000000  0   -6482206.272   2329142.695   -155844.267
10 0 59306  69702.000000  0   -6345968.753   2468845.824  -1056873.780
10 0 59306  69822.000000  0   -6096875.667   2562065.713  -1939317.923
10 0 59306  69942.000000  0   -5740208.234   2605281.461  -2787683.775
10 0 59306  70062.000000  0   -5283183.621   2595962.916  -3587109.434
10 0 59306  70182.000000  0   -4734798.739   2532642.771  -4323626.585
10 0 59306  70302.000000  0   -4105642.413   2414966.206  -4984402.803
10 0 59306  70422.000000  0   -3407680.510   2243717.279  -5557958.801
10 0 59306  70542.000000  0   -2654021.358   2020822.390  -6034358.183
10 0 59306  70662.000000  0   -1858665.340   1749330.716  -6405369.818
10 0 59306  70782.000000  0   -1036242.106   1433371.668  -6664598.124
10 0 59306  70902.000000  0    -201744.136   1078091.207  -6807581.723
10 0 59306  71022.000000  0     629740.853    689568.458  -6831861.191
10 0 59306  71142.000000  0    1443295.360    274714.034  -6737018.590
10 0 59306  71262.000000  0    2224434.858   -158850.424  -6524684.126
10 0 59306  71382.000000  0    2959359.502   -602928.353  -6198510.790
10 0 59306  71502.000000  0    3635194.964  -1048898.720  -5764118.280
10 0 59306  71622.000000  0    4240216.215  -1487878.189  -5229005.475
10 0 59306  71742.000000  0    4764054.299  -1910894.474  -4602433.463
10 0 59306  71862.000000  0    5197880.271  -2309067.249  -3895276.120
99
